[{"OBJECT_NAME":"STARLINK-1231","OBJECT_ID":"2020-012AL","EPOCH":"2026-03-09T22:37:47.053344","MEAN_MOTION":15.21109103,"ECCENTRICITY":0.00044424,"INCLINATION":53.0512,"RA_OF_ASC_NODE":14.6305,"ARG_OF_PERICENTER":85.7688,"MEAN_ANOMALY":274.3815,"EPHEMERIS_TYPE":0,"CLASSIFICATION_TYPE":"U","NORAD_CAT_ID":45212,"ELEMENT_SET_NO":999,"REV_AT_EPOCH":33526,"BSTAR":0.0021253625,"MEAN_MOTION_DOT":0.00047876,"MEAN_MOTION_DDOT":0},{"OBJECT_NAME":"ROADS 2","OBJECT_ID":"2025-135X","EPOCH":"2026-03-09T20:33:50.973408","MEAN_MOTION":15.22472145,"ECCENTRICITY":0.0002782,"INCLINATION":97.4653,"RA_OF_ASC_NODE":185.5116,"ARG_OF_PERICENTER":96.6927,"MEAN_ANOMALY":263.4626,"EPHEMERIS_TYPE":0,"CLASSIFICATION_TYPE":"U","NORAD_CAT_ID":64549,"ELEMENT_SET_NO":999,"REV_AT_EPOCH":3979,"BSTAR":0.00041430645,"MEAN_MOTION_DOT":9.527e-5,"MEAN_MOTION_DDOT":0}]
